[{"OBJECT_NAME":"XCUBE-1","OBJECT_ID":"2024-247Z","EPOCH":"2026-03-09T11:35:28.885344","MEAN_MOTION":15.27910558,"ECCENTRICITY":0.00052355,"INCLINATION":44.9938,"RA_OF_ASC_NODE":117.7807,"ARG_OF_PERICENTER":331.1499,"MEAN_ANOMALY":28.9094,"EPHEMERIS_TYPE":0,"CLASSIFICATION_TYPE":"U","NORAD_CAT_ID":62400,"ELEMENT_SET_NO":999,"REV_AT_EPOCH":6770,"BSTAR":0.00036224252,"MEAN_MOTION_DOT":9.773e-5,"MEAN_MOTION_DDOT":0},{"OBJECT_NAME":"STARLINK-34264","OBJECT_ID":"2025-120X","EPOCH":"2026-03-09T10:09:35.621280","MEAN_MOTION":15.30194137,"ECCENTRICITY":0.00011984,"INCLINATION":53.1572,"RA_OF_ASC_NODE":118.0468,"ARG_OF_PERICENTER":78.2808,"MEAN_ANOMALY":281.8328,"EPHEMERIS_TYPE":0,"CLASSIFICATION_TYPE":"U","NORAD_CAT_ID":64277,"ELEMENT_SET_NO":999,"REV_AT_EPOCH":4381,"BSTAR":0.0012623509,"MEAN_MOTION_DOT":0.00037209,"MEAN_MOTION_DDOT":0}]
