XCUBE-1                 
1 62400U 24247Z   26068.48297321  .00009773  00000+0  36224-3 0  9994
2 62400  44.9938 117.7807 0005235 331.1499  28.9094 15.27910558 67702
STARLINK-34264          
1 64277U 25120X   26068.42332895  .00037209  00000+0  12624-2 0  9991
2 64277  53.1572 118.0468 0001198  78.2808 281.8328 15.30194137 43813
